COMMENT,ORIGINATOR,NORAD_CAT_ID,OBJECT_NAME,OBJECT_TYPE,CLASSIFICATION_TYPE,INTLDES,EPOCH,EPOCH_MICROSECONDS,MEAN_MOTION,ECCENTRICITY,INCLINATION,RA_OF_ASC_NODE,ARG_OF_PERICENTER,MEAN_ANOMALY,EPHEMERIS_TYPE,ELEMENT_SET_NO,REV_AT_EPOCH,BSTAR,MEAN_MOTION_DOT,MEAN_MOTION_DDOT,FILE,TLE_LINE0,TLE_LINE1,TLE_LINE2,OBJECT_ID,OBJECT_NUMBER,SEMIMAJOR_AXIS,PERIOD,APOGEE,PERIGEE
"GENERATED VIA SPACETRACK.ORG API","JSPOC","33415","CZ-3B R/B","ROCKET BODY","U","08055B","2016-01-08 20:32:17","547360","3.27727358","0.6556152","23.8495","250.4145","314.1891","7.9778","0","999","6456","0.00065645","9.443e-05","0","1978018","0 CZ-3B R/B","1 33415U 08055B   16008.85575865  .00009443  00000-0  65645-3 0  9997","2 33415  23.8495 250.4145 6556152 314.1891   7.9778  3.27727358 64560","2008-055B","33415","19145.205","439.389","25318.959","215.182"
"GENERATED VIA SPACETRACK.ORG API","JSPOC","25319","IRIDIUM 69","PAYLOAD","U","98026A","2016-01-08 20:32:19","651200","14.38535465","0.0002462","86.4012","106.7384","145.8858","351.567","0","999","92725","5.4942e-05","1.88e-06","0","1978186","0 IRIDIUM 69","1 25319U 98026A   16008.85578300 +.00000188 +00000-0 +54942-4 0  9991","2 25319 086.4012 106.7384 0002462 145.8858 351.5670 14.38535465927251","1998-026A","25319","7141.478","100.101","765.101","761.585"
"GENERATED VIA SPACETRACK.ORG API","JSPOC","25730","FENGYUN 1C","PAYLOAD","U","99025A","2016-01-08 20:32:21","875136","14.13841822","0.0019218","98.9628","338.8873","276.6997","113.0611","0","999","85807","0.00079549","1.464e-05","0","1978186","0 FENGYUN 1C","1 25730U 99025A   16008.85580874 +.00001464 +00000-0 +79549-3 0  9994","2 25730 098.9628 338.8873 0019218 276.6997 113.0611 14.13841822858073","1999-025A","25730","7224.391","101.850","860.140","832.372"
"GENERATED VIA SPACETRACK.ORG API","JSPOC","23463","TSIKADA","PAYLOAD","U","95002A","2016-01-08 20:32:25","318176","13.72448204","0.0037658","82.929","314.4103","287.5155","99.252","0","999","4976","1.1034e-05","2.5e-07","0","1977868","0 TSIKADA","1 23463U 95002A   16008.85584859  .00000025  00000-0  11034-4 0  9991","2 23463  82.9290 314.4103 0037658 287.5155  99.2520 13.72448204 49766","1995-002A","23463","7368.931","104.921","1018.546","963.046"
"GENERATED VIA SPACETRACK.ORG API","JSPOC","40028","POPSAT HIP 1","PAYLOAD","U","14033U","2016-01-08 20:32:26","520000","14.87583023","0.0012875","97.942","274.4028","226.3176","133.6968","0","999","8435","0.00014313","1.245e-05","0","1977840","0 POPSAT HIP 1","1 40028U 14033U   16008.85586250  .00001245  00000-0  14313-3 0  9996","2 40028  97.9420 274.4028 0012875 226.3176 133.6968 14.87583023 84351","2014-033U","40028","6983.626","96.801","614.483","596.500"
"GENERATED VIA SPACETRACK.ORG API","JSPOC","15930","COSMOS 1670","PAYLOAD","U","85064A","2016-01-08 20:32:38","311872","13.83708332","0.0068257","64.9412","310.9762","197.4347","198.6976","0","999","52658","9.3709e-07","-8.8e-07","0","1977865","0 COSMOS 1670","1 15930U 85064A   16008.85599898 -.00000088  00000-0  93709-6 0  9998","2 15930  64.9412 310.9762 0068257 197.4347 198.6976 13.83708332526587","1985-064A","15930","7328.900","104.068","1000.790","900.740"
"GENERATED VIA SPACETRACK.ORG API","JSPOC","21655","METEOR 3-5","PAYLOAD","U","91056A","2016-01-08 20:32:54","419424","13.17072732","0.0012465","82.5581","313.1977","313.5435","46.4651","0","999","17286","-0.00022151","-7.3e-07","0","1978186","0 METEOR 3-5","1 21655U 91056A   16008.85618541 -.00000073 +00000-0 -22151-3 0  9999","2 21655 082.5581 313.1977 0012465 313.5435 046.4651 13.17072732172866","1991-056A","21655","7574.058","109.333","1205.364","1186.482"
"GENERATED VIA SPACETRACK.ORG API","JSPOC","271","MIDAS 5 (STRONGBACK)","PAYLOAD","U","62010A","2016-01-08 20:32:55","482144","9.41304733","0.0327846","86.6658","150.4148","31.3414","330.6588","0","999","84703","-0.0054329","-2.2e-07","0","1978186","0 MIDAS 5 (STRONGBACK)","1   271U 62010A   16008.85619771 -.00000022 +00000-0 -54329-2 0  9999","2   271 086.6658 150.4148 0327846 031.3414 330.6588 09.41304733847039","1962-010A","271","9475.053","152.979","3407.554","2786.282"
"GENERATED VIA SPACETRACK.ORG API","JSPOC","23004","COSMOS 2273","PAYLOAD","U","94011F","2016-01-08 20:32:56","536224","12.62826465","0.0004953","82.573","231.25","194.8345","292.882","0","999","954","0.00014686","3.7e-07","0","1978186","0 COSMOS 2273","1 23004U 94011F   16008.85620991 +.00000037 +00000-0 +14686-3 0  9997","2 23004 082.5730 231.2500 0004953 194.8345 292.8820 12.62826465009545","1994-011F","23004","7789.436","114.029","1415.159","1407.443"
"GENERATED VIA SPACETRACK.ORG API","JSPOC","14158","GALAXY 1","PAYLOAD","U","83065A","2016-01-08 20:33:04","595616","1.00101567","0.0005104","14.9807","16.05","218.8091","265.8128","0","999","845","0","-1.56e-06","0","1978186","0 GALAXY 1","1 14158U 83065A   16008.85630319 -.00000156 +00000-0 +00000-0 0  9994","2 14158 014.9807 016.0500 0005104 218.8091 265.8128 01.00101567008451","1983-065A","14158","42212.517","1438.538","35855.928","35812.837"
"GENERATED VIA SPACETRACK.ORG API","JSPOC","23613","TDRS 7","PAYLOAD","U","95035B","2016-01-08 20:33:04","985280","1.00267443","0.0019173","14.6897","20.8511","11.7767","108.1033","0","999","7502","0","-1.92e-06","0","1978186","0 TDRS 7","1 23613U 95035B   16008.85630770 -.00000192 +00000-0 +00000-0 0  9991","2 23613 014.6897 020.8511 0019173 011.7767 108.1033 01.00267443075026","1995-035B","23613","42165.949","1436.159","35868.658","35706.969"
"GENERATED VIA SPACETRACK.ORG API","JSPOC","31126","MAST","PAYLOAD","U","07012K","2016-01-08 20:33:07","118496","14.56260693","0.009112","97.9904","332.8905","15.3111","345.0812","0","999","46336","9.732e-05","4.08e-06","0","1978186","0 MAST","1 31126U 07012K   16008.85633239 +.00000408 +00000-0 +97320-4 0  9994","2 31126 097.9904 332.8905 0091120 015.3111 345.0812 14.56260693463365","2007-012K","31126","7083.410","98.883","769.819","640.731"
"GENERATED VIA SPACETRACK.ORG API","JSPOC","21891","DELTA 2 R/B(1)","ROCKET BODY","U","92009B","2016-01-08 20:33:12","402720","14.82470296","0.0047789","19.9955","213.1265","77.896","282.6808","0","999","28819","7.6455e-05","1.043e-05","0","1977796","0 DELTA 2 R/B(1)","1 21891U 92009B   16008.85639355  .00001043  00000-0  76455-4 0  9999","2 21891  19.9955 213.1265 0047789  77.8960 282.6808 14.82470296288198","1992-009B","21891","6999.674","97.135","654.990","588.088"
"GENERATED VIA SPACETRACK.ORG API","JSPOC","18187","COSMOS 1867","PAYLOAD","U","87060A","2016-01-08 20:33:14","913504","14.31067778","0.002014","65.0091","258.98","276.7834","83.0959","0","999","48859","5.1823e-06","-8.7e-07","0","1978186","0 COSMOS 1867","1 18187U 87060A   16008.85642261 -.00000087 +00000-0 +51823-5 0  9995","2 18187 065.0091 258.9800 0020140 276.7834 083.0959 14.31067778488596","1987-060A","18187","7166.300","100.624","802.598","773.732"
"GENERATED VIA SPACETRACK.ORG API","JSPOC","1502","SCOUT B R/B","ROCKET BODY","U","65063B","2016-01-08 20:33:23","434272","11.78530157","0.078982","69.2306","257.525","316.803","159.6096","0","999","16917","9.0304e-05","-2.1e-07","0","1978186","0 SCOUT B R/B","1  1502U 65063B   16008.85652123 -.00000021 +00000-0 +90304-4 0  9999","2  1502 069.2306 257.5250 0789820 316.8030 159.6096 11.78530157169175","1965-063B","1502","8156.578","122.186","2422.666","1134.220"
"GENERATED VIA SPACETRACK.ORG API","JSPOC","25431","IRIDIUM 03","PAYLOAD","U","98048A","2016-01-08 20:33:24","585984","14.34218422","0.0001923","86.3989","115.3368","97.2651","47.6807","0","999","91004","8.3196e-05","2.53e-06","0","1978186","0 IRIDIUM 03","1 25431U 98048A   16008.85653456 +.00000253 +00000-0 +83196-4 0  9992","2 25431 086.3989 115.3368 0001923 097.2651 047.6807 14.34218422910049","1998-048A","25431","7155.801","100.403","779.042","776.290"
"GENERATED VIA SPACETRACK.ORG API","JSPOC","15369","COSMOS 1606","PAYLOAD","U","84111A","2016-01-08 20:33:25","951104","15.14310718","0.0016882","82.5294","278.8935","280.1811","79.7517","0","999","70092","7.2736e-05","1.367e-05","0","1978186","0 COSMOS 1606","1 15369U 84111A   16008.85655036 +.00001367 +00000-0 +72736-4 0  9998","2 15369 082.5294 278.8935 0016882 280.1811 079.7517 15.14310718700929","1984-111A","15369","6901.208","95.092","534.724","511.423"
"GENERATED VIA SPACETRACK.ORG API","JSPOC","21576","ORBCOMM-X","PAYLOAD","U","91050C","2016-01-08 20:33:27","275616","14.41327106","0.0004754","98.7454","16.8485","82.2424","277.9303","0","999","28536","5.033e-05","1.16e-06","0","1978186","0 ORBCOMM-X","1 21576U 91050C   16008.85656569 +.00000116 +00000-0 +50330-4 0  9994","2 21576 098.7454 016.8485 0004754 082.2424 277.9303 14.41327106285368","1991-050C","21576","7132.254","99.907","757.509","750.728"
"GENERATED VIA SPACETRACK.ORG API","JSPOC","5174","COSMOS 407","PAYLOAD","U","71035A","2016-01-08 20:33:34","495200","14.33140327","0.001971","74.0432","236.7834","271.6829","88.2065","0","999","33432","3.3825e-05","6.7e-07","0","1978186","0 COSMOS 407","1  5174U 71035A   16008.85664925 +.00000067 +00000-0 +33825-4 0  9991","2  5174 074.0432 236.7834 0019710 271.6829 088.2065 14.33140327334327","1971-035A","5174","7159.390","100.478","795.366","767.143"
"GENERATED VIA SPACETRACK.ORG API","JSPOC","38043","GLOBALSTAR M092","PAYLOAD","U","11080D","2016-01-08 20:33:34","186752","12.62264819","0.0001056","52.0072","149.1157","87.6075","78.4403","0","999","18676","-0.00012509","-1.26e-06","0","1978186","0 GLOBALSTAR M092","1 38043U 11080D   16008.85664568 -.00000126 +00000-0 -12509-3 0  9992","2 38043 052.0072 149.1157 0001056 087.6075 078.4403 12.62264819186764","2011-080D","38043","7791.747","114.080","1414.435","1412.789"
